*******************************************************************************
Ephemeris / WWW_USER Mon Jul 15 19:12:47 2024 Pasadena, USA      / Horizons    
*******************************************************************************
Target body name: (2018 VS1)                      {source: JPL#4}
Center body name: Earth (399)                     {source: DE441}
Center-site name: Gemini South Obs., Cerro Pachon
*******************************************************************************
Start time      : A.D. 2018-Dec-17 23:51:00.0000 UT      
Stop  time      : A.D. 2018-Dec-18 09:27:00.0000 UT      
Step-size       : 1 minutes
*******************************************************************************
Target pole/equ : undefined
Target radii    : undefined                                                    
Center geodetic : 289.2634, -30.2406227, 2.71233  {E-lon(deg),Lat(deg),Alt(km)}
Center cylindric: 289.2634,5517.21435,-3194.81213 {E-lon(deg),Dxy(km),Dz(km)}
Center pole/equ : ITRF93                          {East-longitude positive}
Center radii    : 6378.137, 6378.137, 6356.752 km {Equator_a, b, pole_c}       
Target primary  : Sun
Vis. interferer : MOON (R_eq= 1737.400) km        {source: DE441}
Rel. light bend : Sun                             {source: DE441}
Rel. lght bnd GM: 1.3271E+11 km^3/s^2                                          
Small-body perts: Yes                             {source: SB441-N16}
Atmos refraction: NO (AIRLESS)
RA format       : HMS
Time format     : CAL 
Calendar mode   : Mixed Julian/Gregorian
RTS-only print  : NO       
EOP file        : eop.240715.p241008                                           
EOP coverage    : DATA-BASED 1962-JAN-20 TO 2024-JUL-15. PREDICTS-> 2024-OCT-07
Units conversion: 1 au= 149597870.700 km, c= 299792.458 km/s, 1 day= 86400.0 s 
Table cut-offs 1: Elevation (-90.0deg=NO ),Airmass (>38.000=NO), Daylight (YES)
Table cut-offs 2: Solar elongation (  0.0,180.0=NO ),Local Hour Angle( 0.0=NO )
Table cut-offs 3: RA/DEC angular rate (     0.0=NO )                           
*******************************************************************************
Initial IAU76/J2000 heliocentric ecliptic osculating elements (au, days, deg.):
  EPOCH=  2458427.5 ! 2018-Nov-05.00 (TDB)         Residual RMS= .21634        
   EC= .3907275528854954   QR= .7806320880190512   TP= 2458486.1030618688      
   OM= 55.95483604725189   W=  67.17004921097404   IN= 3.601110299269385       
  Equivalent ICRF heliocentric cartesian coordinates (au, au/d):
   X= 7.595935200506908E-01  Y= 6.354459268576240E-01  Z= 2.586666727482118E-01
  VX=-1.643099138746886E-02 VY= 7.530892270769961E-03 VZ= 4.533522122669557E-03
Asteroid physical parameters (km, seconds, rotational period in hours):        
   GM= n.a.                RAD= n.a.               ROTPER= n.a.                
   H= 26.6                 G= .150                 B-V= n.a.                   
                           ALBEDO= n.a.            STYP= n.a.                  
*******************************************************************************
 Date__(UT)__HR:MN     R.A._________(ICRF)_________DEC
******************************************************
$$SOE
 2018-Dec-18 06:00  m  15 05 55.938293 -09 26 52.82537
 2018-Dec-18 06:01  m  15 05 55.998405 -09 26 53.15170
 2018-Dec-18 06:02  m  15 05 56.058485 -09 26 53.47808
 2018-Dec-18 06:03  m  15 05 56.118534 -09 26 53.80452
 2018-Dec-18 06:04  m  15 05 56.178551 -09 26 54.13102
 2018-Dec-18 06:05  m  15 05 56.238536 -09 26 54.45758
 2018-Dec-18 06:06  m  15 05 56.298489 -09 26 54.78420
 2018-Dec-18 06:07  m  15 05 56.358411 -09 26 55.11087
 2018-Dec-18 06:08  m  15 05 56.418301 -09 26 55.43760
 2018-Dec-18 06:09  m  15 05 56.478159 -09 26 55.76439
 2018-Dec-18 06:10  m  15 05 56.537984 -09 26 56.09124
 2018-Dec-18 06:11  m  15 05 56.597778 -09 26 56.41814
 2018-Dec-18 06:12  m  15 05 56.657539 -09 26 56.74509
 2018-Dec-18 06:13  m  15 05 56.717268 -09 26 57.07210
 2018-Dec-18 06:14  m  15 05 56.776965 -09 26 57.39917
 2018-Dec-18 06:15  m  15 05 56.836629 -09 26 57.72629
 2018-Dec-18 06:16  m  15 05 56.896260 -09 26 58.05347
 2018-Dec-18 06:17  m  15 05 56.955859 -09 26 58.38069
 2018-Dec-18 06:18  m  15 05 57.015425 -09 26 58.70798
 2018-Dec-18 06:19  m  15 05 57.074959 -09 26 59.03531
 2018-Dec-18 06:20  m  15 05 57.134459 -09 26 59.36270
 2018-Dec-18 06:21  m  15 05 57.193927 -09 26 59.69014
 2018-Dec-18 06:22  m  15 05 57.253362 -09 27 00.01763
 2018-Dec-18 06:23  m  15 05 57.312764 -09 27 00.34518
 2018-Dec-18 06:24  m  15 05 57.372132 -09 27 00.67277
 2018-Dec-18 06:25  m  15 05 57.431468 -09 27 01.00042
 2018-Dec-18 06:26  m  15 05 57.490770 -09 27 01.32812
 2018-Dec-18 06:27  m  15 05 57.550039 -09 27 01.65586
 2018-Dec-18 06:28  m  15 05 57.609275 -09 27 01.98366
 2018-Dec-18 06:29  m  15 05 57.668477 -09 27 02.31151
 2018-Dec-18 06:30  m  15 05 57.727645 -09 27 02.63940
 2018-Dec-18 06:31  m  15 05 57.786780 -09 27 02.96735
 2018-Dec-18 06:32  m  15 05 57.845882 -09 27 03.29534
 2018-Dec-18 06:33  m  15 05 57.904950 -09 27 03.62338
 2018-Dec-18 06:34  m  15 05 57.963984 -09 27 03.95147
 2018-Dec-18 06:35  m  15 05 58.022984 -09 27 04.27960
 2018-Dec-18 06:36  m  15 05 58.081950 -09 27 04.60778
 2018-Dec-18 06:37  m  15 05 58.140883 -09 27 04.93601
 2018-Dec-18 06:38  m  15 05 58.199781 -09 27 05.26428
 2018-Dec-18 06:39  m  15 05 58.258645 -09 27 05.59260
 2018-Dec-18 06:40  m  15 05 58.317476 -09 27 05.92097
 2018-Dec-18 06:41  m  15 05 58.376272 -09 27 06.24938
 2018-Dec-18 06:42     15 05 58.435034 -09 27 06.57783
 2018-Dec-18 06:43     15 05 58.493761 -09 27 06.90633
 2018-Dec-18 06:44     15 05 58.552455 -09 27 07.23487
 2018-Dec-18 06:45     15 05 58.611114 -09 27 07.56346
 2018-Dec-18 06:46     15 05 58.669738 -09 27 07.89209
 2018-Dec-18 06:47     15 05 58.728328 -09 27 08.22076
 2018-Dec-18 06:48     15 05 58.786884 -09 27 08.54947
 2018-Dec-18 06:49     15 05 58.845405 -09 27 08.87822
 2018-Dec-18 06:50     15 05 58.903891 -09 27 09.20702
 2018-Dec-18 06:51     15 05 58.962343 -09 27 09.53586
 2018-Dec-18 06:52     15 05 59.020760 -09 27 09.86474
 2018-Dec-18 06:53     15 05 59.079142 -09 27 10.19365
 2018-Dec-18 06:54     15 05 59.137489 -09 27 10.52261
 2018-Dec-18 06:55     15 05 59.195801 -09 27 10.85161
 2018-Dec-18 06:56     15 05 59.254079 -09 27 11.18064
 2018-Dec-18 06:57     15 05 59.312321 -09 27 11.50972
 2018-Dec-18 06:58     15 05 59.370529 -09 27 11.83883
 2018-Dec-18 06:59     15 05 59.428701 -09 27 12.16798
 2018-Dec-18 07:00     15 05 59.486838 -09 27 12.49717
 2018-Dec-18 07:01     15 05 59.544941 -09 27 12.82640
 2018-Dec-18 07:02     15 05 59.603008 -09 27 13.15566
 2018-Dec-18 07:03     15 05 59.661039 -09 27 13.48496
 2018-Dec-18 07:04     15 05 59.719036 -09 27 13.81429
 2018-Dec-18 07:05     15 05 59.776997 -09 27 14.14366
 2018-Dec-18 07:06     15 05 59.834923 -09 27 14.47307
 2018-Dec-18 07:07     15 05 59.892813 -09 27 14.80251
 2018-Dec-18 07:08     15 05 59.950668 -09 27 15.13198
 2018-Dec-18 07:09     15 06 00.008488 -09 27 15.46149
 2018-Dec-18 07:10     15 06 00.066272 -09 27 15.79103
 2018-Dec-18 07:11     15 06 00.124021 -09 27 16.12061
 2018-Dec-18 07:12     15 06 00.181733 -09 27 16.45021
 2018-Dec-18 07:13     15 06 00.239411 -09 27 16.77985
 2018-Dec-18 07:14     15 06 00.297053 -09 27 17.10952
 2018-Dec-18 07:15     15 06 00.354659 -09 27 17.43923
 2018-Dec-18 07:16     15 06 00.412229 -09 27 17.76896
 2018-Dec-18 07:17     15 06 00.469764 -09 27 18.09873
 2018-Dec-18 07:18     15 06 00.527262 -09 27 18.42852
 2018-Dec-18 07:19     15 06 00.584726 -09 27 18.75835
 2018-Dec-18 07:20     15 06 00.642153 -09 27 19.08820
 2018-Dec-18 07:21     15 06 00.699544 -09 27 19.41809
 2018-Dec-18 07:22     15 06 00.756900 -09 27 19.74800
 2018-Dec-18 07:23     15 06 00.814219 -09 27 20.07794
 2018-Dec-18 07:24     15 06 00.871503 -09 27 20.40791
 2018-Dec-18 07:25     15 06 00.928751 -09 27 20.73791
 2018-Dec-18 07:26     15 06 00.985963 -09 27 21.06793
 2018-Dec-18 07:27     15 06 01.043138 -09 27 21.39798
 2018-Dec-18 07:28     15 06 01.100278 -09 27 21.72806
 2018-Dec-18 07:29     15 06 01.157382 -09 27 22.05816
 2018-Dec-18 07:30  r  15 06 01.214449 -09 27 22.38829
 2018-Dec-18 07:31     15 06 01.271481 -09 27 22.71845
 2018-Dec-18 07:32     15 06 01.328476 -09 27 23.04862
 2018-Dec-18 07:33     15 06 01.385435 -09 27 23.37883
 2018-Dec-18 07:34     15 06 01.442358 -09 27 23.70905
 2018-Dec-18 07:35     15 06 01.499245 -09 27 24.03930
 2018-Dec-18 07:36     15 06 01.556096 -09 27 24.36958
 2018-Dec-18 07:37     15 06 01.612910 -09 27 24.69987
 2018-Dec-18 07:38     15 06 01.669689 -09 27 25.03019
 2018-Dec-18 07:39     15 06 01.726431 -09 27 25.36053
 2018-Dec-18 07:40     15 06 01.783136 -09 27 25.69089
 2018-Dec-18 07:41     15 06 01.839806 -09 27 26.02127
 2018-Dec-18 07:42     15 06 01.896439 -09 27 26.35168
 2018-Dec-18 07:43     15 06 01.953036 -09 27 26.68210
 2018-Dec-18 07:44     15 06 02.009597 -09 27 27.01255
 2018-Dec-18 07:45     15 06 02.066121 -09 27 27.34301
 2018-Dec-18 07:46     15 06 02.122609 -09 27 27.67349
 2018-Dec-18 07:47     15 06 02.179061 -09 27 28.00399
 2018-Dec-18 07:48     15 06 02.235476 -09 27 28.33451
 2018-Dec-18 07:49     15 06 02.291855 -09 27 28.66505
 2018-Dec-18 07:50     15 06 02.348197 -09 27 28.99560
 2018-Dec-18 07:51     15 06 02.404503 -09 27 29.32617
 2018-Dec-18 07:52     15 06 02.460773 -09 27 29.65676
 2018-Dec-18 07:53     15 06 02.517007 -09 27 29.98737
 2018-Dec-18 07:54     15 06 02.573204 -09 27 30.31799
 2018-Dec-18 07:55     15 06 02.629364 -09 27 30.64862
 2018-Dec-18 07:56     15 06 02.685488 -09 27 30.97927
 2018-Dec-18 07:57     15 06 02.741576 -09 27 31.30994
 2018-Dec-18 07:58     15 06 02.797628 -09 27 31.64062
 2018-Dec-18 07:59     15 06 02.853643 -09 27 31.97131
 2018-Dec-18 08:00 A   15 06 02.909621 -09 27 32.30201
 2018-Dec-18 08:01 A   15 06 02.965563 -09 27 32.63273
 2018-Dec-18 08:02 A   15 06 03.021469 -09 27 32.96347
